{
    "links": {
        "self": "http://www.neowsapp.com/rest/v1/neo/3661504?api_key=iIulBulltgU6a56xZRHN4H3l9WmuAYTsLGpBGhQ2"
    },
    "id": "3661504",
    "neo_reference_id": "3661504",
    "name": "(2014 CP13)",
    "designation": "2014 CP13",
    "nasa_jpl_url": "http://ssd.jpl.nasa.gov/sbdb.cgi?sstr=3661504",
    "absolute_magnitude_h": 23.1,
    "estimated_diameter": {
        "kilometers": {
            "estimated_diameter_min": 0.063760979,
            "estimated_diameter_max": 0.1425738833
        },
        "meters": {
            "estimated_diameter_min": 63.7609789875,
            "estimated_diameter_max": 142.5738833281
        },
        "miles": {
            "estimated_diameter_min": 0.0396192233,
            "estimated_diameter_max": 0.0885912765
        },
        "feet": {
            "estimated_diameter_min": 209.1895703015,
            "estimated_diameter_max": 467.7620993781
        }
    },
    "is_potentially_hazardous_asteroid": false,
    "close_approach_data": [
        {
            "close_approach_date": "1941-04-10",
            "close_approach_date_full": "1941-Apr-10 06:06",
            "epoch_date_close_approach": -906573240000,
            "relative_velocity": {
                "kilometers_per_second": "6.6879929965",
                "kilometers_per_hour": "24076.7747873331",
                "miles_per_hour": "14960.3715338293"
            },
            "miss_distance": {
                "astronomical": "0.0410324744",
                "lunar": "15.9616325416",
                "kilometers": "6138370.771069528",
                "miles": "3814206.7300263664"
            },
            "orbiting_body": "Earth"
        },
        {
            "close_approach_date": "2014-03-07",
            "close_approach_date_full": "2014-Mar-07 15:10",
            "epoch_date_close_approach": 1394205000000,
            "relative_velocity": {
                "kilometers_per_second": "7.2759274739",
                "kilometers_per_hour": "26193.338906215",
                "miles_per_hour": "16275.5221664756"
            },
            "miss_distance": {
                "astronomical": "0.0793701705",
                "lunar": "30.8749963245",
                "kilometers": "11873608.448336835",
                "miles": "7377918.171184923"
            },
            "orbiting_body": "Earth"
        }
    ],
    "orbital_data": {
        "orbit_id": "14",
        "orbit_determination_date": "2017-04-06 08:42:30",
        "first_observation_date": "2014-02-10",
        "last_observation_date": "2014-03-20",
        "data_arc_in_days": 38,
        "observations_used": 46,
        "orbit_uncertainty": "7",
        "minimum_orbit_intersection": ".0381203",
        "jupiter_tisserand_invariant": "3.815",
        "epoch_osculation": "2459000.5",
        "eccentricity": ".4666512128307199",
        "semi_major_axis": "1.891365783145916",
        "inclination": "4.257463912726358",
        "ascending_node_longitude": "226.0423676489596",
        "orbital_period": "950.0833751520115",
        "perihelion_distance": "1.00875764653435",
        "perihelion_argument": "317.6787855542555",
        "aphelion_distance": "2.773973919757482",
        "perihelion_time": "2458637.543802262367",
        "mean_anomaly": "137.5292259636073",
        "mean_motion": ".378914113661236",
        "equinox": "J2000",
        "orbit_class": {
            "orbit_class_type": "APO",
            "orbit_class_description": "Near-Earth asteroid orbits which cross the Earth’s orbit similar to that of 1862 Apollo",
            "orbit_class_range": "a (semi-major axis) > 1.0 AU; q (perihelion) < 1.017 AU"
        }
    },
    "is_sentry_object": false
}